STARLINK-1434
1 45712U 20035BH  24099.98375695  .00002374  00000+0  17822-3 0  9993
2 45712  53.0550 297.7198 0001599  96.9477 263.1694 15.06395023213289
STARLINK-1137
1 45092U 20006BA  24100.42884187  .00003239  00000+0  23635-3 0  9995
2 45092  53.0534 145.7197 0001237  97.4811 262.6319 15.06385625231623
STARLINK-1227
1 45230U 20012BE  24100.46567498  .00001227  00000+0  10124-3 0  9997
2 45230  53.0542 265.5519 0001259  89.7413 270.3720 15.06405859230028
STARLINK-1347
1 45586U 20025BH  24100.38183580  .00006709  00000+0  46872-3 0  9991
2 45586  53.0544 335.9319 0001470  85.3267 274.7890 15.06408676220090
STARLINK-1306
1 45362U 20019C   24100.41040187  .00000339  00000+0  41638-4 0  9994
2 45362  53.0546  65.8018 0001445  93.7357 266.3798 15.06394175224326
STARLINK-1928
1 46758U 20074V   24100.62786572  .00001004  00000+0  86304-4 0  9992
2 46758  53.0503 224.8257 0000963  85.0210 275.0888 15.06384554191248
STARLINK-1492
1 45779U 20038BB  24100.21639032  .00018274  00000+0  59457-3 0  9992
2 45779  53.0275  39.7722 0003010  60.9750 299.1551 15.31944747212122
STARLINK-1458
1 45675U 20035U   24099.90358693  .00002597  00000+0  19322-3 0  9996
2 45675  53.0549 328.0776 0001496  98.5169 261.5990 15.06395805212847
STARLINK-1083
1 44939U 20001AB  24100.60573809  .00000873  00000+0  77490-4 0  9995
2 44939  53.0531 224.9255 0000861  99.2307 260.8780 15.06409478234758
STARLINK-1358
1 45566U 20025AM  24100.38460219  .00001655  00000+0  13001-3 0  9999
2 45566  53.0561 345.9210 0001559  94.7193 265.3974 15.06400248219968
STARLINK-1616
1 46148U 20057AH  24100.54585221 -.00000339  00000+0 -38805-5 0  9991
2 46148  53.0548 195.1957 0001267  90.1344 269.9791 15.06401401200966
STARLINK-1327
1 45555U 20025AA  24100.37353996  .00000517  00000+0  53609-4 0  9994
2 45555  53.0549 345.9673 0001319  89.7009 270.4131 15.06395075219962
STARLINK-1524
1 46047U 20055W   24100.17542007  .00001963  00000+0  15061-3 0  9990
2 46047  53.0564  16.8573 0001376  98.2163 261.8982 15.06399482203594
STARLINK-1420
1 45695U 20035AQ  24100.52096492  .00001353  00000+0  10973-3 0  9997
2 45695  53.0556 295.2980 0003227  86.8456 273.2902 15.06398613213778
STARLINK-1373
1 45544U 20025P   24100.46753446  .00006034  00000+0  42355-3 0  9991
2 45544  53.0556   5.5458 0001504  88.4378 271.6783 15.06407973219708
STARLINK-1184
1 45098U 20006BG  24100.41778145 -.00003902  00000+0 -24332-3 0  9990
2 45098  53.0539 145.7707 0001383  98.5893 261.5253 15.06378687231620
STARLINK-1207
1 45380U 20019W   24100.58179068  .00003776  00000+0  27221-3 0  9992
2 45380  53.0559  45.0325 0001504  88.8116 271.3045 15.06402280224637
STARLINK-1011
1 44717U 19074E   24100.28138847 -.00000046  00000+0  15820-4 0  9992
2 44717  53.0542 106.3836 0001311  93.0801 267.0338 15.06384500243053
STARLINK-1707
1 46359U 20062AL  24100.37863237 -.00001441  00000+0 -77953-4 0  9999
2 46359  53.0584 230.9445 0000985  60.3840 299.7247 15.06365890199534
STARLINK-1407
1 45703U 20035AY  24099.95795027 -.00000430  00000+0 -99805-5 0  9991
2 45703  53.0531 297.8329 0001408  81.5146 278.6003 15.06398847213683
STARLINK-1789
1 46690U 20073W   24100.38782731  .00002475  00000+0  18497-3 0  9992
2 46690  53.0540 130.9053 0001389  93.8452 266.2695 15.06397283191862
STARLINK-1052
1 44757U 19074AW  24100.28384380  .00018575  00000+0  86799-3 0  9998
2 44757  53.0576  96.4412 0005667  15.2311 344.8854 15.19842091243193
STARLINK-1320
1 45572U 20025AT  24100.05608926  .00001843  00000+0  14257-3 0  9992
2 45572  53.0543 332.3987 0001233  77.1616 282.9510 15.06398367220130
STARLINK-1773
1 46679U 20073K   24100.35187989  .00000014  00000+0  19807-4 0  9994
2 46679  53.0552 121.0685 0001348  93.7237 266.3906 15.06385410192001
STARLINK-1135
1 45049U 20006F   24100.31882938  .00011467  00000+0  37749-3 0  9990
2 45049  53.0862 119.9432 0003972 105.9297 254.2142 15.31971016232013
STARLINK-1759
1 46340U 20062R   24100.19573754  .00000574  00000+0  57479-4 0  9996
2 46340  53.0543 277.0835 0001409  82.3770 277.7379 15.06385875198864
STARLINK-1575
1 46349U 20062AA  24100.62925312  .00001786  00000+0  13883-3 0  9990
2 46349  53.0552 229.8199 0001097  72.9895 287.1214 15.06382377199573
STARLINK-1700
1 46549U 20070T   24100.23255342 -.00000445  00000+0 -10951-4 0  9994
2 46549  53.0547  76.5999 0001424  90.5179 269.5973 15.06391020194070
STARLINK-1795
1 46696U 20073AC  24100.49933128  .00002865  00000+0  21117-3 0  9994
2 46696  53.0527 120.4016 0001674  94.1064 266.0117 15.06394583192022
STARLINK-1614
1 46124U 20057H   24100.47398026  .00006032  00000+0  42356-3 0  9990
2 46124  53.0531 175.5210 0001265  73.8173 286.2955 15.06396280201246
STARLINK-1133
1 45064U 20006W   24100.46754548  .00015433  00000+0  10523-2 0  9995
2 45064  53.0534 165.5474 0001235  72.1868 287.9255 15.06414515231350
STARLINK-1174
1 45075U 20006AH  24100.47491615  .00011226  00000+0  77114-3 0  9997
2 45075  53.0533 165.5133 0001275  73.5409 286.5720 15.06407844231352
STARLINK-1563
1 46078U 20055BD  24100.44265016 -.00000118  00000+0  10955-4 0  9996
2 46078  53.0575 355.6579 0001325  79.5950 280.5188 15.06400907203883
STARLINK-1539
1 46072U 20055AX  24100.58334491  .00693218  00000+0  11014-1 0  9991
2 46072  53.0564 350.3415 0001134 111.7530 234.6889 15.50676723  5863
STARLINK-1328
1 45576U 20025AX  24100.36340455  .00002315  00000+0  17429-3 0  9999
2 45576  53.0544 336.0168 0001452  97.4508 262.6646 15.06398961220118
STARLINK-1060
1 44765U 19074BE  24100.31456682  .00001431  00000+0  11496-3 0  9991
2 44765  53.0544 106.2334 0001565  85.5489 274.5679 15.06395441243056
